GPS_BIIR-8_PRN-16
1 27663U 03005A   23124.32835510 -.00000016  00000+0  00000+0 0  9997
2 27663  55.3124 260.3043 0131986  44.3839 296.4310  2.00573093148448
